SL-14 R/B               
1 16792U 86046B   26051.63170073  .00000374  00000+0  40313-4 0  9998
2 16792  82.4796  96.3038 0021582 285.2717  74.6113 14.85572516123879
SL-14 R/B               
1 16882U 86055B   26051.77376250  .00000443  00000+0  48183-4 0  9998
2 16882  82.5230 142.5705 0019634  32.2345  88.8123 14.85624700116851
AJISAI (EGS)            
1 16908U 86061A   26051.94089423 -.00000078  00000+0  13884-3 0  9990
2 16908  50.0085 144.8508 0011234 243.8452 228.3055 12.44515382465918
COSMOS 1812             
1 17295U 87003A   26051.94079305  .00457104  94086-4  70869-3 0  9998
2 17295  82.4738 214.7629 0004245 295.7812  64.3030 16.04145111141789
SL-14 R/B               
1 17567U 87024B   26051.67133001  .00000389  00000+0  41509-4 0  9994
2 17567  82.5271 108.7612 0017187 320.9322  39.0652 14.86114889 85607
COSMOS 1833             
1 17589U 87027A   26051.87078471 -.00000073  00000+0 -13395-4 0  9996
2 17589  70.9232   1.3641 0024827 237.5457 122.3263 14.13057266  7940
SL-16 R/B               
1 17590U 87027B   26051.89318502  .00000255  00000+0  15007-3 0  9993
2 17590  71.0039 311.8903 0004324 173.5335 186.5845 14.17165381 12961
SL-14 R/B               
1 17912U 87038B   26051.79226498  .00000406  00000+0  44322-4 0  9995
2 17912  82.5031 312.7237 0018223 217.0343 142.9617 14.85352397 76721
COSMOS 1844             
1 17973U 87041A   26051.49951098  .00000203  00000+0  13026-3 0  9995
2 17973  70.8983  70.4349 0029147  45.0388 315.3089 14.14550801  1157
SL-14 R/B               
1 18153U 87055B   26051.83953246  .00000519  00000+0  56849-4 0  9997
2 18153  82.5016   4.9080 0022229  70.6199 289.7418 14.85606575 67438
COSMOS 1867             
1 18187U 87060A   26051.88406519 -.00000030  00000+0  26211-4 0  9990
2 18187  65.0125 353.7669 0014254 277.6593  82.2872 14.31500163 17539
SL-14 R/B               
1 18749U 88001B   26051.83364804  .00000489  00000+0  53769-4 0  9990
2 18749  82.5119 211.2122 0016736 296.3270  63.6227 14.85505040 39527
