CCSDS_OMM_VERS = 2.0
CREATION_DATE  = 
ORIGINATOR     = 

OBJECT_NAME    = SL-14 R/B
OBJECT_ID      = 1986-046B
CENTER_NAME    = EARTH
REF_FRAME      = TEME
TIME_SYSTEM    = UTC
MEAN_ELEMENT_THEORY = SGP/SGP4

EPOCH          = 2026-02-20T15:09:38.943072
MEAN_MOTION    = 14.85572516
ECCENTRICITY   = .00215824
INCLINATION    = 82.4796
RA_OF_ASC_NODE = 96.3038
ARG_OF_PERICENTER = 285.2717
MEAN_ANOMALY   = 74.6113

EPHEMERIS_TYPE = 0
CLASSIFICATION_TYPE = U
NORAD_CAT_ID   = 16792
ELEMENT_SET_NO = 999
REV_AT_EPOCH   = 12387
BSTAR          = .40312778E-4
MEAN_MOTION_DOT = .374E-5
MEAN_MOTION_DDOT = 0

CCSDS_OMM_VERS = 2.0
CREATION_DATE  = 
ORIGINATOR     = 

OBJECT_NAME    = SL-14 R/B
OBJECT_ID      = 1986-055B
CENTER_NAME    = EARTH
REF_FRAME      = TEME
TIME_SYSTEM    = UTC
MEAN_ELEMENT_THEORY = SGP/SGP4

EPOCH          = 2026-02-20T18:34:13.080000
MEAN_MOTION    = 14.85624700
ECCENTRICITY   = .00196349
INCLINATION    = 82.5230
RA_OF_ASC_NODE = 142.5705
ARG_OF_PERICENTER = 32.2345
MEAN_ANOMALY   = 88.8123

EPHEMERIS_TYPE = 0
CLASSIFICATION_TYPE = U
NORAD_CAT_ID   = 16882
ELEMENT_SET_NO = 999
REV_AT_EPOCH   = 11685
BSTAR          = .48182949E-4
MEAN_MOTION_DOT = .443E-5
MEAN_MOTION_DDOT = 0

CCSDS_OMM_VERS = 2.0
CREATION_DATE  = 
ORIGINATOR     = 

OBJECT_NAME    = AJISAI (EGS)
OBJECT_ID      = 1986-061A
CENTER_NAME    = EARTH
REF_FRAME      = TEME
TIME_SYSTEM    = UTC
MEAN_ELEMENT_THEORY = SGP/SGP4

EPOCH          = 2026-02-20T22:34:53.261472
MEAN_MOTION    = 12.44515382
ECCENTRICITY   = .00112344
INCLINATION    = 50.0085
RA_OF_ASC_NODE = 144.8508
ARG_OF_PERICENTER = 243.8452
MEAN_ANOMALY   = 228.3055

EPHEMERIS_TYPE = 0
CLASSIFICATION_TYPE = U
NORAD_CAT_ID   = 16908
ELEMENT_SET_NO = 999
REV_AT_EPOCH   = 46591
BSTAR          = .13884054E-3
MEAN_MOTION_DOT = -.78E-6
MEAN_MOTION_DDOT = 0

CCSDS_OMM_VERS = 2.0
CREATION_DATE  = 
ORIGINATOR     = 

OBJECT_NAME    = COSMOS 1812
OBJECT_ID      = 1987-003A
CENTER_NAME    = EARTH
REF_FRAME      = TEME
TIME_SYSTEM    = UTC
MEAN_ELEMENT_THEORY = SGP/SGP4

EPOCH          = 2026-02-20T22:34:44.519520
MEAN_MOTION    = 16.04145111
ECCENTRICITY   = .0004245
INCLINATION    = 82.4738
RA_OF_ASC_NODE = 214.7629
ARG_OF_PERICENTER = 295.7812
MEAN_ANOMALY   = 64.3030

EPHEMERIS_TYPE = 0
CLASSIFICATION_TYPE = U
NORAD_CAT_ID   = 17295
ELEMENT_SET_NO = 999
REV_AT_EPOCH   = 14178
BSTAR          = .70869298E-3
MEAN_MOTION_DOT = .457104E-2
MEAN_MOTION_DDOT = .940863E-4

CCSDS_OMM_VERS = 2.0
CREATION_DATE  = 
ORIGINATOR     = 

OBJECT_NAME    = SL-14 R/B
OBJECT_ID      = 1987-024B
CENTER_NAME    = EARTH
REF_FRAME      = TEME
TIME_SYSTEM    = UTC
MEAN_ELEMENT_THEORY = SGP/SGP4

EPOCH          = 2026-02-20T16:06:42.912864
MEAN_MOTION    = 14.86114889
ECCENTRICITY   = .00171871
INCLINATION    = 82.5271
RA_OF_ASC_NODE = 108.7612
ARG_OF_PERICENTER = 320.9322
MEAN_ANOMALY   = 39.0652

EPHEMERIS_TYPE = 0
CLASSIFICATION_TYPE = U
NORAD_CAT_ID   = 17567
ELEMENT_SET_NO = 999
REV_AT_EPOCH   = 8560
BSTAR          = .41509358E-4
MEAN_MOTION_DOT = .389E-5
MEAN_MOTION_DDOT = 0

CCSDS_OMM_VERS = 2.0
CREATION_DATE  = 
ORIGINATOR     = 

OBJECT_NAME    = COSMOS 1833
OBJECT_ID      = 1987-027A
CENTER_NAME    = EARTH
REF_FRAME      = TEME
TIME_SYSTEM    = UTC
MEAN_ELEMENT_THEORY = SGP/SGP4

EPOCH          = 2026-02-20T20:53:55.798944
MEAN_MOTION    = 14.13057266
ECCENTRICITY   = .00248279
INCLINATION    = 70.9232
RA_OF_ASC_NODE = 1.3641
ARG_OF_PERICENTER = 237.5457
MEAN_ANOMALY   = 122.3263

EPHEMERIS_TYPE = 0
CLASSIFICATION_TYPE = U
NORAD_CAT_ID   = 17589
ELEMENT_SET_NO = 999
REV_AT_EPOCH   = 794
BSTAR          = -.13394612E-4
MEAN_MOTION_DOT = -.73E-6
MEAN_MOTION_DDOT = 0

CCSDS_OMM_VERS = 2.0
CREATION_DATE  = 
ORIGINATOR     = 

OBJECT_NAME    = SL-16 R/B
OBJECT_ID      = 1987-027B
CENTER_NAME    = EARTH
REF_FRAME      = TEME
TIME_SYSTEM    = UTC
MEAN_ELEMENT_THEORY = SGP/SGP4

EPOCH          = 2026-02-20T21:26:11.185728
MEAN_MOTION    = 14.17165381
ECCENTRICITY   = .00043243
INCLINATION    = 71.0039
RA_OF_ASC_NODE = 311.8903
ARG_OF_PERICENTER = 173.5335
MEAN_ANOMALY   = 186.5845

EPHEMERIS_TYPE = 0
CLASSIFICATION_TYPE = U
NORAD_CAT_ID   = 17590
ELEMENT_SET_NO = 999
REV_AT_EPOCH   = 1296
BSTAR          = .15007123E-3
MEAN_MOTION_DOT = .255E-5
MEAN_MOTION_DDOT = 0

CCSDS_OMM_VERS = 2.0
CREATION_DATE  = 
ORIGINATOR     = 

OBJECT_NAME    = SL-14 R/B
OBJECT_ID      = 1987-038B
CENTER_NAME    = EARTH
REF_FRAME      = TEME
TIME_SYSTEM    = UTC
MEAN_ELEMENT_THEORY = SGP/SGP4

EPOCH          = 2026-02-20T19:00:51.694272
MEAN_MOTION    = 14.85352397
ECCENTRICITY   = .00182233
INCLINATION    = 82.5031
RA_OF_ASC_NODE = 312.7237
ARG_OF_PERICENTER = 217.0343
MEAN_ANOMALY   = 142.9617

EPHEMERIS_TYPE = 0
CLASSIFICATION_TYPE = U
NORAD_CAT_ID   = 17912
ELEMENT_SET_NO = 999
REV_AT_EPOCH   = 7672
BSTAR          = .44321651E-4
MEAN_MOTION_DOT = .406E-5
MEAN_MOTION_DDOT = 0

CCSDS_OMM_VERS = 2.0
CREATION_DATE  = 
ORIGINATOR     = 

OBJECT_NAME    = COSMOS 1844
OBJECT_ID      = 1987-041A
CENTER_NAME    = EARTH
REF_FRAME      = TEME
TIME_SYSTEM    = UTC
MEAN_ELEMENT_THEORY = SGP/SGP4

EPOCH          = 2026-02-20T11:59:17.748672
MEAN_MOTION    = 14.14550801
ECCENTRICITY   = .00291475
INCLINATION    = 70.8983
RA_OF_ASC_NODE = 70.4349
ARG_OF_PERICENTER = 45.0388
MEAN_ANOMALY   = 315.3089

EPHEMERIS_TYPE = 0
CLASSIFICATION_TYPE = U
NORAD_CAT_ID   = 17973
ELEMENT_SET_NO = 999
REV_AT_EPOCH   = 115
BSTAR          = .13025996E-3
MEAN_MOTION_DOT = .203E-5
MEAN_MOTION_DDOT = 0

CCSDS_OMM_VERS = 2.0
CREATION_DATE  = 
ORIGINATOR     = 

OBJECT_NAME    = SL-14 R/B
OBJECT_ID      = 1987-055B
CENTER_NAME    = EARTH
REF_FRAME      = TEME
TIME_SYSTEM    = UTC
MEAN_ELEMENT_THEORY = SGP/SGP4

EPOCH          = 2026-02-20T20:08:55.604544
MEAN_MOTION    = 14.85606575
ECCENTRICITY   = .00222292
INCLINATION    = 82.5016
RA_OF_ASC_NODE = 4.9080
ARG_OF_PERICENTER = 70.6199
MEAN_ANOMALY   = 289.7418

EPHEMERIS_TYPE = 0
CLASSIFICATION_TYPE = U
NORAD_CAT_ID   = 18153
ELEMENT_SET_NO = 999
REV_AT_EPOCH   = 6743
BSTAR          = .56848713E-4
MEAN_MOTION_DOT = .519E-5
MEAN_MOTION_DDOT = 0

CCSDS_OMM_VERS = 2.0
CREATION_DATE  = 
ORIGINATOR     = 

OBJECT_NAME    = COSMOS 1867
OBJECT_ID      = 1987-060A
CENTER_NAME    = EARTH
REF_FRAME      = TEME
TIME_SYSTEM    = UTC
MEAN_ELEMENT_THEORY = SGP/SGP4

EPOCH          = 2026-02-20T21:13:03.232416
MEAN_MOTION    = 14.31500163
ECCENTRICITY   = .00142545
INCLINATION    = 65.0125
RA_OF_ASC_NODE = 353.7669
ARG_OF_PERICENTER = 277.6593
MEAN_ANOMALY   = 82.2872

EPHEMERIS_TYPE = 0
CLASSIFICATION_TYPE = U
NORAD_CAT_ID   = 18187
ELEMENT_SET_NO = 999
REV_AT_EPOCH   = 1753
BSTAR          = .26210592E-4
MEAN_MOTION_DOT = -.3E-6
MEAN_MOTION_DDOT = 0

CCSDS_OMM_VERS = 2.0
CREATION_DATE  = 
ORIGINATOR     = 

OBJECT_NAME    = SL-14 R/B
OBJECT_ID      = 1988-001B
CENTER_NAME    = EARTH
REF_FRAME      = TEME
TIME_SYSTEM    = UTC
MEAN_ELEMENT_THEORY = SGP/SGP4

EPOCH          = 2026-02-20T20:00:27.190656
MEAN_MOTION    = 14.85505040
ECCENTRICITY   = .00167362
INCLINATION    = 82.5119
RA_OF_ASC_NODE = 211.2122
ARG_OF_PERICENTER = 296.3270
MEAN_ANOMALY   = 63.6227

EPHEMERIS_TYPE = 0
CLASSIFICATION_TYPE = U
NORAD_CAT_ID   = 18749
ELEMENT_SET_NO = 999
REV_AT_EPOCH   = 3952
BSTAR          = .53769133E-4
MEAN_MOTION_DOT = .489E-5
MEAN_MOTION_DDOT = 0

